{"fetched_at":"2026-07-12T07:15:44.940Z","source":"https://celestrak.org/NORAD/elements/gp.php?NAME=JILIN&FORMAT=JSON","constellation":"jilin-1-gaofen","records":[{"OBJECT_NAME":"JILIN-1 GAOFEN 03D51","OBJECT_ID":"2022-155B","EPOCH":"2026-07-11T22:22:29.434368","CLASSIFICATION_TYPE":"U","MEAN_MOTION":15.64610486,"ECCENTRICITY":0.00041985,"INCLINATION":97.6243,"RA_OF_ASC_NODE":339.6906,"ARG_OF_PERICENTER":244.0848,"MEAN_ANOMALY":115.9979,"EPHEMERIS_TYPE":0,"NORAD_CAT_ID":54252,"ELEMENT_SET_NO":999,"REV_AT_EPOCH":20361,"BSTAR":0.00038114909,"MEAN_MOTION_DOT":0.00036794,"MEAN_MOTION_DDOT":0},{"OBJECT_NAME":"JILIN-1 GAOFEN 03D53","OBJECT_ID":"2022-155C","EPOCH":"2026-07-11T22:52:44.982624","CLASSIFICATION_TYPE":"U","MEAN_MOTION":15.5427632,"ECCENTRICITY":0.00047644,"INCLINATION":97.6237,"RA_OF_ASC_NODE":334.9693,"ARG_OF_PERICENTER":265.2905,"MEAN_ANOMALY":94.7803,"EPHEMERIS_TYPE":0,"NORAD_CAT_ID":54253,"ELEMENT_SET_NO":999,"REV_AT_EPOCH":20333,"BSTAR":0.00033279941,"MEAN_MOTION_DOT":0.00021662,"MEAN_MOTION_DDOT":0},{"OBJECT_NAME":"JILIN-1 GAOFEN 03D52","OBJECT_ID":"2022-155E","EPOCH":"2026-07-11T23:29:26.700000","CLASSIFICATION_TYPE":"U","MEAN_MOTION":15.61821179,"ECCENTRICITY":0.00035442,"INCLINATION":97.6218,"RA_OF_ASC_NODE":337.9674,"ARG_OF_PERICENTER":260.3031,"MEAN_ANOMALY":99.7826,"EPHEMERIS_TYPE":0,"NORAD_CAT_ID":54255,"ELEMENT_SET_NO":999,"REV_AT_EPOCH":20357,"BSTAR":0.00034418699,"MEAN_MOTION_DOT":0.00029757,"MEAN_MOTION_DDOT":0},{"OBJECT_NAME":"JILIN-1 GAOFEN 03D50","OBJECT_ID":"2022-167J","EPOCH":"2026-07-11T23:15:35.475840","CLASSIFICATION_TYPE":"U","MEAN_MOTION":15.35018901,"ECCENTRICITY":0.00054878,"INCLINATION":97.6845,"RA_OF_ASC_NODE":1.8364,"ARG_OF_PERICENTER":32.0444,"MEAN_ANOMALY":328.1131,"EPHEMERIS_TYPE":0,"NORAD_CAT_ID":54690,"ELEMENT_SET_NO":999,"REV_AT_EPOCH":19915,"BSTAR":0.00020528353,"MEAN_MOTION_DOT":0.00006891,"MEAN_MOTION_DDOT":0},{"OBJECT_NAME":"JILIN-1 GAOFEN 03D47","OBJECT_ID":"2022-167L","EPOCH":"2026-07-11T23:19:01.990848","CLASSIFICATION_TYPE":"U","MEAN_MOTION":15.34303004,"ECCENTRICITY":0.0008061,"INCLINATION":97.6941,"RA_OF_ASC_NODE":3.5763,"ARG_OF_PERICENTER":39.7996,"MEAN_ANOMALY":320.3836,"EPHEMERIS_TYPE":0,"NORAD_CAT_ID":54692,"ELEMENT_SET_NO":999,"REV_AT_EPOCH":19914,"BSTAR":0.00019961724,"MEAN_MOTION_DOT":0.0000655,"MEAN_MOTION_DDOT":0},{"OBJECT_NAME":"JILIN-1 GAOFEN 03D49","OBJECT_ID":"2022-167N","EPOCH":"2026-07-11T22:18:59.610240","CLASSIFICATION_TYPE":"U","MEAN_MOTION":15.37991746,"ECCENTRICITY":0.00062432,"INCLINATION":97.6818,"RA_OF_ASC_NODE":4.1761,"ARG_OF_PERICENTER":59.2031,"MEAN_ANOMALY":300.9827,"EPHEMERIS_TYPE":0,"NORAD_CAT_ID":54694,"ELEMENT_SET_NO":999,"REV_AT_EPOCH":19929,"BSTAR":0.00020867527,"MEAN_MOTION_DOT":0.00007714,"MEAN_MOTION_DDOT":0},{"OBJECT_NAME":"JILIN-1 GAOFEN 03D48","OBJECT_ID":"2022-167P","EPOCH":"2026-07-11T23:07:03.530784","CLASSIFICATION_TYPE":"U","MEAN_MOTION":15.35748735,"ECCENTRICITY":0.00067398,"INCLINATION":97.689,"RA_OF_ASC_NODE":3.5454,"ARG_OF_PERICENTER":40.7892,"MEAN_ANOMALY":319.3854,"EPHEMERIS_TYPE":0,"NORAD_CAT_ID":54695,"ELEMENT_SET_NO":999,"REV_AT_EPOCH":19919,"BSTAR":0.00020285499,"MEAN_MOTION_DOT":0.00006971,"MEAN_MOTION_DDOT":0},{"OBJECT_NAME":"JILIN GAOFEN OBJECT A","OBJECT_ID":"2026-080A","EPOCH":"2026-07-11T03:44:12.676992","CLASSIFICATION_TYPE":"U","MEAN_MOTION":15.09176094,"ECCENTRICITY":0.0011579,"INCLINATION":97.6616,"RA_OF_ASC_NODE":267.6398,"ARG_OF_PERICENTER":349.3655,"MEAN_ANOMALY":10.7327,"EPHEMERIS_TYPE":0,"NORAD_CAT_ID":68691,"ELEMENT_SET_NO":999,"REV_AT_EPOCH":1327,"BSTAR":0.00022509419,"MEAN_MOTION_DOT":0.00003515,"MEAN_MOTION_DDOT":0},{"OBJECT_NAME":"JILIN GAOFEN OBJECT B","OBJECT_ID":"2026-080B","EPOCH":"2026-07-11T22:23:41.707968","CLASSIFICATION_TYPE":"U","MEAN_MOTION":15.09088662,"ECCENTRICITY":0.00150249,"INCLINATION":97.6595,"RA_OF_ASC_NODE":268.4316,"ARG_OF_PERICENTER":325.3658,"MEAN_ANOMALY":34.6591,"EPHEMERIS_TYPE":0,"NORAD_CAT_ID":68692,"ELEMENT_SET_NO":999,"REV_AT_EPOCH":1339,"BSTAR":0.00017672297,"MEAN_MOTION_DOT":0.00002742,"MEAN_MOTION_DDOT":0},{"OBJECT_NAME":"JILIN GAOFEN OBJECT C","OBJECT_ID":"2026-080C","EPOCH":"2026-07-11T03:42:18.138240","CLASSIFICATION_TYPE":"U","MEAN_MOTION":15.0915985,"ECCENTRICITY":0.00123938,"INCLINATION":97.6594,"RA_OF_ASC_NODE":267.6231,"ARG_OF_PERICENTER":329.6909,"MEAN_ANOMALY":30.3601,"EPHEMERIS_TYPE":0,"NORAD_CAT_ID":68693,"ELEMENT_SET_NO":999,"REV_AT_EPOCH":1327,"BSTAR":0.0002229405,"MEAN_MOTION_DOT":0.0000348,"MEAN_MOTION_DDOT":0},{"OBJECT_NAME":"JILIN GAOFEN OBJECT D","OBJECT_ID":"2026-080D","EPOCH":"2026-07-11T22:24:28.355328","CLASSIFICATION_TYPE":"U","MEAN_MOTION":15.08944524,"ECCENTRICITY":0.001669,"INCLINATION":97.666,"RA_OF_ASC_NODE":268.5038,"ARG_OF_PERICENTER":337.5167,"MEAN_ANOMALY":22.5328,"EPHEMERIS_TYPE":0,"NORAD_CAT_ID":68694,"ELEMENT_SET_NO":999,"REV_AT_EPOCH":1337,"BSTAR":0.00017619131,"MEAN_MOTION_DOT":0.00002724,"MEAN_MOTION_DDOT":0},{"OBJECT_NAME":"JILIN GAOFEN OBJECT E","OBJECT_ID":"2026-080E","EPOCH":"2026-07-11T23:34:26.044896","CLASSIFICATION_TYPE":"U","MEAN_MOTION":15.09235722,"ECCENTRICITY":0.00127227,"INCLINATION":97.6637,"RA_OF_ASC_NODE":268.5722,"ARG_OF_PERICENTER":348.9311,"MEAN_ANOMALY":11.1636,"EPHEMERIS_TYPE":0,"NORAD_CAT_ID":68695,"ELEMENT_SET_NO":999,"REV_AT_EPOCH":1336,"BSTAR":0.00016525568,"MEAN_MOTION_DOT":0.00002568,"MEAN_MOTION_DDOT":0},{"OBJECT_NAME":"JILIN GAOFEN OBJECT F","OBJECT_ID":"2026-080F","EPOCH":"2026-07-11T21:57:26.291232","CLASSIFICATION_TYPE":"U","MEAN_MOTION":15.09199956,"ECCENTRICITY":0.0013832,"INCLINATION":97.6608,"RA_OF_ASC_NODE":268.4747,"ARG_OF_PERICENTER":354.8998,"MEAN_ANOMALY":5.2088,"EPHEMERIS_TYPE":0,"NORAD_CAT_ID":68696,"ELEMENT_SET_NO":999,"REV_AT_EPOCH":1335,"BSTAR":0.00017257896,"MEAN_MOTION_DOT":0.00002683,"MEAN_MOTION_DDOT":0},{"OBJECT_NAME":"JILIN GAOFEN OBJECT G","OBJECT_ID":"2026-080G","EPOCH":"2026-07-11T23:12:52.520256","CLASSIFICATION_TYPE":"U","MEAN_MOTION":15.09184589,"ECCENTRICITY":0.00137338,"INCLINATION":97.6654,"RA_OF_ASC_NODE":268.6094,"ARG_OF_PERICENTER":347.4907,"MEAN_ANOMALY":12.5979,"EPHEMERIS_TYPE":0,"NORAD_CAT_ID":68697,"ELEMENT_SET_NO":999,"REV_AT_EPOCH":1336,"BSTAR":0.00021757531,"MEAN_MOTION_DOT":0.00003398,"MEAN_MOTION_DDOT":0},{"OBJECT_NAME":"JILIN GAOFEN OBJECT H","OBJECT_ID":"2026-080H","EPOCH":"2026-07-10T15:20:06.898272","CLASSIFICATION_TYPE":"U","MEAN_MOTION":15.09105259,"ECCENTRICITY":0.00145489,"INCLINATION":97.6637,"RA_OF_ASC_NODE":267.2744,"ARG_OF_PERICENTER":353.5464,"MEAN_ANOMALY":6.5575,"EPHEMERIS_TYPE":0,"NORAD_CAT_ID":68698,"ELEMENT_SET_NO":999,"REV_AT_EPOCH":1316,"BSTAR":0.00021938544,"MEAN_MOTION_DOT":0.00003421,"MEAN_MOTION_DDOT":0}]}
