JILIN-1 GAOFEN 03D51    
1 54252U 22155B   26192.93228512  .00036794  00000+0  38115-3 0  9994
2 54252  97.6243 339.6906 0004198 244.0848 115.9979 15.64610486203613
JILIN-1 GAOFEN 03D53    
1 54253U 22155C   26192.95329841  .00021662  00000+0  33280-3 0  9990
2 54253  97.6237 334.9693 0004764 265.2905  94.7803 15.54276320203339
JILIN-1 GAOFEN 03D52    
1 54255U 22155E   26192.97878125  .00029757  00000+0  34419-3 0  9996
2 54255  97.6218 337.9674 0003544 260.3031  99.7826 15.61821179203575
JILIN-1 GAOFEN 03D50    
1 54690U 22167J   26192.96916060  .00006891  00000+0  20528-3 0  9992
2 54690  97.6845   1.8364 0005487  32.0444 328.1131 15.35018901199155
JILIN-1 GAOFEN 03D47    
1 54692U 22167L   26192.97155082  .00006550  00000+0  19962-3 0  9996
2 54692  97.6941   3.5763 0008061  39.7996 320.3836 15.34303004199148
JILIN-1 GAOFEN 03D49    
1 54694U 22167N   26192.92985660  .00007714  00000+0  20868-3 0  9996
2 54694  97.6818   4.1761 0006243  59.2031 300.9827 15.37991746199294
JILIN-1 GAOFEN 03D48    
1 54695U 22167P   26192.96323531  .00006971  00000+0  20285-3 0  9991
2 54695  97.6890   3.5454 0006739  40.7892 319.3854 15.35748735199196
JILIN GAOFEN OBJECT A   
1 68691U 26080A   26192.15570228  .00003515  00000+0  22509-3 0  9990
2 68691  97.6616 267.6398 0011579 349.3655  10.7327 15.09176094 13271
JILIN GAOFEN OBJECT B   
1 68692U 26080B   26192.93312162  .00002742  00000+0  17672-3 0  9994
2 68692  97.6595 268.4316 0015024 325.3658  34.6591 15.09088662 13397
JILIN GAOFEN OBJECT C   
1 68693U 26080C   26192.15437660  .00003480  00000+0  22294-3 0  9996
2 68693  97.6594 267.6231 0012393 329.6909  30.3601 15.09159850 13276
JILIN GAOFEN OBJECT D   
1 68694U 26080D   26192.93366152  .00002724  00000+0  17619-3 0  9995
2 68694  97.6660 268.5038 0016690 337.5167  22.5328 15.08944524 13373
JILIN GAOFEN OBJECT E   
1 68695U 26080E   26192.98224589  .00002568  00000+0  16526-3 0  9990
2 68695  97.6637 268.5722 0012722 348.9311  11.1636 15.09235722 13366
JILIN GAOFEN OBJECT F   
1 68696U 26080F   26192.91488763  .00002683  00000+0  17258-3 0  9991
2 68696  97.6608 268.4747 0013832 354.8998   5.2088 15.09199956 13353
JILIN GAOFEN OBJECT G   
1 68697U 26080G   26192.96727454  .00003398  00000+0  21758-3 0  9994
2 68697  97.6654 268.6094 0013733 347.4907  12.5979 15.09184589 13367
JILIN GAOFEN OBJECT H   
1 68698U 26080H   26191.63896873  .00003421  00000+0  21939-3 0  9998
2 68698  97.6637 267.2744 0014548 353.5464   6.5575 15.09105259 13167
